GSAT0207 (GALILEO 15)   
1 41859U 16069A   26170.67835764 -.00000013  00000+0  00000+0 0  9994
2 41859  55.5002 101.0173 0005217 330.9828  28.9678  1.70473648 59449
GSAT0212 (GALILEO 16)   
1 41860U 16069B   26169.94520460 -.00000012  00000+0  00000+0 0  9997
2 41860  55.4975 101.0327 0004607   1.4092 358.5693  1.70473680 59686
GSAT0213 (GALILEO 17)   
1 41861U 16069C   26170.89901147 -.00000014  00000+0  00000+0 0  9991
2 41861  55.5002 101.0142 0004814 312.9981  46.9417  1.70474134 59565
GSAT0214 (GALILEO 18)   
1 41862U 16069D   26169.87201710 -.00000012  00000+0  00000+0 0  9995
2 41862  55.4996 101.0352 0004721 311.5610  48.3755  1.70473520 59672
GSAT0215 (GALILEO 19)   
1 43055U 17079A   26169.77531633  .00000028  00000+0  00000+0 0  9998
2 43055  55.0730 221.4630 0003228 264.0800  95.9660  1.70474593 53016
GSAT0216 (GALILEO 20)   
1 43056U 17079B   26168.89331476  .00000034  00000+0  00000+0 0  9991
2 43056  55.0732 221.4873 0004317 276.2784  83.7610  1.70474666 53015
GSAT0217 (GALILEO 21)   
1 43057U 17079C   26167.35438370  .00000047  00000+0  00000+0 0  9997
2 43057  55.0717 221.5274 0004985 283.8791  76.1632  1.70474228 52976
GSAT0218 (GALILEO 22)   
1 43058U 17079D   26170.50733131  .00000026  00000+0  00000+0 0  9999
2 43058  55.0708 221.4378 0004305 273.7481  86.2815  1.70474769 53056
GSAT0221 (GALILEO 25)   
1 43564U 18060A   26168.65155293 -.00000090  00000+0  00000+0 0  9994
2 43564  57.1692 341.7677 0002595 303.5364  56.4325  1.70475954 49172
GSAT0222 (GALILEO 26)   
1 43565U 18060B   26170.04438053 -.00000093  00000+0  00000+0 0  9992
2 43565  57.1718 341.7337 0001999 248.0862 111.8861  1.70475706 49242
GSAT0219 (GALILEO 23)   
1 43566U 18060C   26171.43843957 -.00000095  00000+0  00000+0 0  9992
2 43566  57.1711 341.6976 0001949 321.5861  38.3948  1.70475997 49246
GSAT0220 (GALILEO 24)   
1 43567U 18060D   26170.48626588 -.00000094  00000+0  00000+0 0  9995
2 43567  57.1712 341.7225 0002111 313.2574  46.7188  1.70475760 49211
GSAT0223 (GALILEO 27)   
1 49809U 21116A   26171.21352742 -.00000095  00000+0  00000+0 0  9997
2 49809  57.1598 341.5920 0001560 185.4323 351.7235  1.70476002 28237
